******** Week 939 almanac for PRN-01 ********
ID:                         01
Health:                     000
Eccentricity:               4.2920559645E-004
Time of Applicability(s):  432000.0000
Orbital Inclination(rad):   0.0659147730
Rate of Right Ascen(r/s):   5.9427475393E-009
SQRT(A)  (m 1/2):           6493.427473
Right Ascen at Week(rad):  -2.8342593915E+000
Argument of Perigee(rad):  -0.854222237
Mean Anom(rad):             1.5110144370E-002
Af0(s):                     8.8155467529E-004
Af1(s/s):                   5.9330318436E-013
week:                        939

******** Week 939 almanac for PRN-02 ********
ID:                         02
Health:                     000
Eccentricity:               9.2134100851E-004
Time of Applicability(s):  432000.0000
Orbital Inclination(rad):   0.0547178687
Rate of Right Ascen(r/s):   8.6375026438E-009
SQRT(A)  (m 1/2):           6493.456783
Right Ascen at Week(rad):  -2.7845580020E+000
Argument of Perigee(rad):   1.241768436
Mean Anom(rad):             3.0954385859E+000
Af0(s):                     3.1271867920E-004
Af1(s/s):                   3.3295144419E-011
week:                        939

******** Week 939 almanac for PRN-03 ********
ID:                         03
Health:                     000
Eccentricity:               9.7717239987E-004
Time of Applicability(s):  432000.0000
Orbital Inclination(rad):   0.0681458387
Rate of Right Ascen(r/s):   5.6666646108E-009
SQRT(A)  (m 1/2):           6493.554893
Right Ascen at Week(rad):  -2.8140122644E+000
Argument of Perigee(rad):   1.473341786
Mean Anom(rad):            -2.9274527181E+000
Af0(s):                    -1.2279371731E-004
Af1(s/s):                   2.2680524125E-011
week:                        939

******** Week 939 almanac for PRN-04 ********
ID:                         04
Health:                     000
Eccentricity:               7.5750937685E-004
Time of Applicability(s):  432000.0000
Orbital Inclination(rad):   0.0692461915
Rate of Right Ascen(r/s):   5.0591393049E-009
SQRT(A)  (m 1/2):           6493.403004
Right Ascen at Week(rad):  -2.8204363561E+000
Argument of Perigee(rad):  -0.718548719
Mean Anom(rad):             1.3575885627E-001
Af0(s):                     5.9996498749E-004
Af1(s/s):                   1.5408829768E-010
week:                        939

******** Week 939 almanac for PRN-05 ********
ID:                         05
Health:                     000
Eccentricity:               8.9558726177E-004
Time of Applicability(s):  432000.0000
Orbital Inclination(rad):   0.0614675313
Rate of Right Ascen(r/s):   8.4714242974E-009
SQRT(A)  (m 1/2):           6493.440462
Right Ascen at Week(rad):  -2.7271004549E+000
Argument of Perigee(rad):  -0.314987333
Mean Anom(rad):            -2.1302913650E+000
Af0(s):                     1.7195742112E-004
Af1(s/s):                  -6.1897154069E-011
week:                        939

******** Week 939 almanac for PRN-06 ********
ID:                         06
Health:                     000
Eccentricity:               3.8070789306E-003
Time of Applicability(s):  432000.0000
Orbital Inclination(rad):   0.9460326645
Rate of Right Ascen(r/s):  -1.8654348457E-009
SQRT(A)  (m 1/2):           6493.376364
Right Ascen at Week(rad):   1.2547702007E+000
Argument of Perigee(rad):  -2.979395874
Mean Anom(rad):            -2.5745154426E+000
Af0(s):                     2.9800808988E-005
Af1(s/s):                   2.0712320747E-011
week:                        939

******** Week 939 almanac for PRN-07 ********
ID:                         07
Health:                     000
Eccentricity:               3.1043490162E-003
Time of Applicability(s):  432000.0000
Orbital Inclination(rad):   0.8589803637
Rate of Right Ascen(r/s):  -2.8565475581E-009
SQRT(A)  (m 1/2):           6492.757181
Right Ascen at Week(rad):  -3.0776104772E+000
Argument of Perigee(rad):  -2.558961003
Mean Anom(rad):             1.2504054383E+000
Af0(s):                    -5.8580818586E-004
Af1(s/s):                  -6.0959237658E-011
week:                        939

******** Week 939 almanac for PRN-08 ********
ID:                         08
Health:                     000
Eccentricity:               2.9366642702E-003
Time of Applicability(s):  432000.0000
Orbital Inclination(rad):   1.0666319356
Rate of Right Ascen(r/s):  -1.7200716479E-009
SQRT(A)  (m 1/2):           6492.834383
Right Ascen at Week(rad):  -8.7999471959E-001
Argument of Perigee(rad):  -3.126623931
Mean Anom(rad):            -3.6090042577E-001
Af0(s):                     1.3478519395E-004
Af1(s/s):                  -2.5978330598E-011
week:                        939

******** Week 939 almanac for PRN-09 ********
ID:                         09
Health:                     000
Eccentricity:               1.1527297902E-002
Time of Applicability(s):  432000.0000
Orbital Inclination(rad):   0.9513620604
Rate of Right Ascen(r/s):  -1.8179328671E-009
SQRT(A)  (m 1/2):           6492.969753
Right Ascen at Week(rad):   1.2998197403E+000
Argument of Perigee(rad):  -2.338410168
Mean Anom(rad):             2.7472695982E+000
Af0(s):                    -3.0972075183E-004
Af1(s/s):                  -5.0704329624E-011
week:                        939

******** Week 939 almanac for PRN-10 ********
ID:                         10
Health:                     000
Eccentricity:               9.3240892747E-003
Time of Applicability(s):  432000.0000
Orbital Inclination(rad):   0.8612399694
Rate of Right Ascen(r/s):  -2.8561904004E-009
SQRT(A)  (m 1/2):           6493.065403
Right Ascen at Week(rad):  -3.0832270250E+000
Argument of Perigee(rad):  -2.433846431
Mean Anom(rad):             9.5752993662E-001
Af0(s):                     1.3859733008E-004
Af1(s/s):                  -1.4848566820E-011
week:                        939

******** Week 939 almanac for PRN-11 ********
ID:                         11
Health:                     000
Eccentricity:               2.2545865504E-003
Time of Applicability(s):  432000.0000
Orbital Inclination(rad):   0.9850561827
Rate of Right Ascen(r/s):  -6.8806437493E-009
SQRT(A)  (m 1/2):           5282.634966
Right Ascen at Week(rad):  -2.1705535448E+000
Argument of Perigee(rad):  -1.657638259
Mean Anom(rad):            -2.3415202574E-001
Af0(s):                     3.4178292844E-004
Af1(s/s):                   1.8575363470E-011
week:                        939

******** Week 939 almanac for PRN-12 ********
ID:                         12
Health:                     000
Eccentricity:               1.3519154163E-003
Time of Applicability(s):  432000.0000
Orbital Inclination(rad):   0.9834780262
Rate of Right Ascen(r/s):  -6.8584999698E-009
SQRT(A)  (m 1/2):           5282.625307
Right Ascen at Week(rad):  -2.1830536385E+000
Argument of Perigee(rad):  -1.570570183
Mean Anom(rad):             4.8895475961E-001
Af0(s):                     8.0569379497E-004
Af1(s/s):                  -1.1194600802E-011
week:                        939

******** Week 939 almanac for PRN-13 ********
ID:                         13
Health:                     000
Eccentricity:               4.9137605820E-003
Time of Applicability(s):  432000.0000
Orbital Inclination(rad):   1.0284480651
Rate of Right Ascen(r/s):  -1.7940032989E-009
SQRT(A)  (m 1/2):           6493.718513
Right Ascen at Week(rad):  -9.0942421187E-001
Argument of Perigee(rad):  -2.379381297
Mean Anom(rad):            -1.2676373420E+000
Af0(s):                     4.0390365757E-004
Af1(s/s):                   4.4657610943E-012
week:                        939

******** Week 939 almanac for PRN-14 ********
ID:                         14
Health:                     000
Eccentricity:               1.0831051040E-003
Time of Applicability(s):  432000.0000
Orbital Inclination(rad):   0.9739655828
Rate of Right Ascen(r/s):  -6.7649246434E-009
SQRT(A)  (m 1/2):           5282.625883
Right Ascen at Week(rad):  -1.1315880540E-001
Argument of Perigee(rad):  -0.362280968
Mean Anom(rad):             2.6799406267E+000
Af0(s):                    -1.0196992662E-004
Af1(s/s):                   8.0975226524E-011
week:                        939

******** Week 939 almanac for PRN-16 ********
ID:                         16
Health:                     000
Eccentricity:               6.3448451692E-003
Time of Applicability(s):  432000.0000
Orbital Inclination(rad):   0.9614627505
Rate of Right Ascen(r/s):  -1.7940032989E-009
SQRT(A)  (m 1/2):           6493.995739
Right Ascen at Week(rad):   1.2500188197E+000
Argument of Perigee(rad):  -2.299148023
Mean Anom(rad):             3.0443481060E+000
Af0(s):                    -2.6367884129E-004
Af1(s/s):                  -2.0741630635E-011
week:                        939

******** Week 939 almanac for PRN-19 ********
ID:                         19
Health:                     000
Eccentricity:               7.7174138278E-004
Time of Applicability(s):  432000.0000
Orbital Inclination(rad):   0.9766009785
Rate of Right Ascen(r/s):  -6.7502811763E-009
SQRT(A)  (m 1/2):           5282.627430
Right Ascen at Week(rad):  -1.1184860427E-001
Argument of Perigee(rad):  -1.121540071
Mean Anom(rad):            -1.0887688368E-001
Af0(s):                    -9.4213255215E-004
Af1(s/s):                   5.2784443483E-012
week:                        939

******** Week 939 almanac for PRN-20 ********
ID:                         20
Health:                     000
Eccentricity:               5.5765372235E-004
Time of Applicability(s):  432000.0000
Orbital Inclination(rad):   0.9765898735
Rate of Right Ascen(r/s):  -6.7181369802E-009
SQRT(A)  (m 1/2):           5282.630423
Right Ascen at Week(rad):  -1.1122107386E-001
Argument of Perigee(rad):  -0.558442359
Mean Anom(rad):             6.6773208984E-002
Af0(s):                    -3.5175471567E-005
Af1(s/s):                  -3.5335290249E-011
week:                        939

